{
  "type": "FeatureCollection",
  "features": [
    {
      "type": "Feature",
      "properties": {
        "norad_id": 30136,
        "name": "FENGYUN 1C DEB",
        "group": "fengyun-1c-debris",
        "lat": -46.2790091010285,
        "lon": 52.44492679382791,
        "alt_km": 1006.8689826187192,
        "timestamp": "2025-12-14T18:52:55.777446+00:00",
        "meta_object_name": "FENGYUN 1C DEB",
        "meta_object_id": "1999-025SR",
        "meta_epoch": "2025-12-13T16:05:17.897856",
        "meta_mean_motion": 13.95326147,
        "meta_eccentricity": 0.0129413,
        "meta_inclination": 98.5566,
        "meta_ra_of_asc_node": 240.4662,
        "meta_arg_of_pericenter": 66.9306,
        "meta_mean_anomaly": 314.6803,
        "meta_ephemeris_type": 0,
        "meta_classification_type": "U",
        "meta_norad_cat_id": 30136,
        "meta_element_set_no": 999,
        "meta_rev_at_epoch": 96104,
        "meta_bstar": 0.00045163398,
        "meta_mean_motion_dot": 6.17e-06,
        "meta_mean_motion_ddot": 0,
        "tle_line1": "1 30136U 99025SR  25347.67034604  .00000617  00000+0  45163-3 0  9994",
        "tle_line2": "2 30136  98.5566 240.4662 0129413  66.9306 314.6803 13.95326147961044"
      },
      "geometry": {
        "type": "Point",
        "coordinates": [
          52.44492679382791,
          -46.2790091010285
        ]
      }
    },
    {
      "type": "Feature",
      "properties": {
        "norad_id": 30138,
        "name": "FENGYUN 1C DEB",
        "group": "fengyun-1c-debris",
        "lat": 41.7892777609007,
        "lon": -130.0510540509946,
        "alt_km": 807.1243447277793,
        "timestamp": "2025-12-14T18:52:55.777456+00:00",
        "meta_object_name": "FENGYUN 1C DEB",
        "meta_object_id": "1999-025ST",
        "meta_epoch": "2025-12-13T15:47:50.237376",
        "meta_mean_motion": 14.20031946,
        "meta_eccentricity": 0.00204446,
        "meta_inclination": 98.7596,
        "meta_ra_of_asc_node": 40.9112,
        "meta_arg_of_pericenter": 135.8452,
        "meta_mean_anomaly": 355.6843,
        "meta_ephemeris_type": 0,
        "meta_classification_type": "U",
        "meta_norad_cat_id": 30138,
        "meta_element_set_no": 999,
        "meta_rev_at_epoch": 97414,
        "meta_bstar": 0.0010906019,
        "meta_mean_motion_dot": 2.282e-05,
        "meta_mean_motion_ddot": 0,
        "tle_line1": "1 30138U 99025ST  25347.65822034  .00002282  00000+0  10906-2 0  9992",
        "tle_line2": "2 30138  98.7596  40.9112 0020444 135.8452 355.6843 14.20031946974149"
      },
      "geometry": {
        "type": "Point",
        "coordinates": [
          -130.0510540509946,
          41.7892777609007
        ]
      }
    },
    {
      "type": "Feature",
      "properties": {
        "norad_id": 30139,
        "name": "FENGYUN 1C DEB",
        "group": "fengyun-1c-debris",
        "lat": -33.959414746974616,
        "lon": 6.5250429229963265,
        "alt_km": 854.326281610618,
        "timestamp": "2025-12-14T18:52:55.777466+00:00",
        "meta_object_name": "FENGYUN 1C DEB",
        "meta_object_id": "1999-025SU",
        "meta_epoch": "2025-12-13T13:01:47.418816",
        "meta_mean_motion": 14.0365744,
        "meta_eccentricity": 0.01309514,
        "meta_inclination": 98.3654,
        "meta_ra_of_asc_node": 191.0672,
        "meta_arg_of_pericenter": 288.2236,
        "meta_mean_anomaly": 125.6037,
        "meta_ephemeris_type": 0,
        "meta_classification_type": "U",
        "meta_norad_cat_id": 30139,
        "meta_element_set_no": 999,
        "meta_rev_at_epoch": 96261,
        "meta_bstar": 0.0014608596,
        "meta_mean_motion_dot": 2.437e-05,
        "meta_mean_motion_ddot": 0,
        "tle_line1": "1 30139U 99025SU  25347.54290994  .00002437  00000+0  14609-2 0  9991",
        "tle_line2": "2 30139  98.3654 191.0672 0130951 288.2236 125.6037 14.03657440962611"
      },
      "geometry": {
        "type": "Point",
        "coordinates": [
          6.5250429229963265,
          -33.959414746974616
        ]
      }
    },
    {
      "type": "Feature",
      "properties": {
        "norad_id": 30140,
        "name": "FENGYUN 1C DEB",
        "group": "fengyun-1c-debris",
        "lat": -41.65320927898957,
        "lon": 59.59903206006307,
        "alt_km": 800.9329568843705,
        "timestamp": "2025-12-14T18:52:55.777477+00:00",
        "meta_object_name": "FENGYUN 1C DEB",
        "meta_object_id": "1999-025SV",
        "meta_epoch": "2025-12-12T02:59:27.700224",
        "meta_mean_motion": 14.20742777,
        "meta_eccentricity": 0.00405813,
        "meta_inclination": 98.8269,
        "meta_ra_of_asc_node": 48.9963,
        "meta_arg_of_pericenter": 311.5162,
        "meta_mean_anomaly": 77.8073,
        "meta_ephemeris_type": 0,
        "meta_classification_type": "U",
        "meta_norad_cat_id": 30140,
        "meta_element_set_no": 999,
        "meta_rev_at_epoch": 97135,
        "meta_bstar": 0.0020096414,
        "meta_mean_motion_dot": 4.328e-05,
        "meta_mean_motion_ddot": 0,
        "tle_line1": "1 30140U 99025SV  25346.12462616  .00004328  00000+0  20096-2 0  9996",
        "tle_line2": "2 30140  98.8269  48.9963 0040581 311.5162  77.8073 14.20742777971356"
      },
      "geometry": {
        "type": "Point",
        "coordinates": [
          59.59903206006307,
          -41.65320927898957
        ]
      }
    },
    {
      "type": "Feature",
      "properties": {
        "norad_id": 30141,
        "name": "FENGYUN 1C DEB",
        "group": "fengyun-1c-debris",
        "lat": -59.27859506247721,
        "lon": 75.20977379708498,
        "alt_km": 739.4354482101389,
        "timestamp": "2025-12-14T18:52:55.777487+00:00",
        "meta_object_name": "FENGYUN 1C DEB",
        "meta_object_id": "1999-025SW",
        "meta_epoch": "2025-12-13T18:37:04.417248",
        "meta_mean_motion": 14.51600917,
        "meta_eccentricity": 0.00195031,
        "meta_inclination": 99.0147,
        "meta_ra_of_asc_node": 269.6203,
        "meta_arg_of_pericenter": 33.6284,
        "meta_mean_anomaly": 326.6143,
        "meta_ephemeris_type": 0,
        "meta_classification_type": "U",
        "meta_norad_cat_id": 30141,
        "meta_element_set_no": 999,
        "meta_rev_at_epoch": 98259,
        "meta_bstar": 0.0031090391,
        "meta_mean_motion_dot": 0.00012455,
        "meta_mean_motion_ddot": 0,
        "tle_line1": "1 30141U 99025SW  25347.77574557  .00012455  00000+0  31090-2 0  9993",
        "tle_line2": "2 30141  99.0147 269.6203 0019503  33.6284 326.6143 14.51600917982595"
      },
      "geometry": {
        "type": "Point",
        "coordinates": [
          75.20977379708498,
          -59.27859506247721
        ]
      }
    },
    {
      "type": "Feature",
      "properties": {
        "norad_id": 30142,
        "name": "FENGYUN 1C DEB",
        "group": "fengyun-1c-debris",
        "lat": 30.520393366098254,
        "lon": -109.96784206406917,
        "alt_km": 921.4148071492682,
        "timestamp": "2025-12-14T18:52:55.777498+00:00",
        "meta_object_name": "FENGYUN 1C DEB",
        "meta_object_id": "1999-025SX",
        "meta_epoch": "2025-12-13T16:38:03.511680",
        "meta_mean_motion": 14.10488436,
        "meta_eccentricity": 0.01012983,
        "meta_inclination": 99.1283,
        "meta_ra_of_asc_node": 63.483,
        "meta_arg_of_pericenter": 305.4804,
        "meta_mean_anomaly": 53.6946,
        "meta_ephemeris_type": 0,
        "meta_classification_type": "U",
        "meta_norad_cat_id": 30142,
        "meta_element_set_no": 999,
        "meta_rev_at_epoch": 96312,
        "meta_bstar": 0.0020334871,
        "meta_mean_motion_dot": 3.752e-05,
        "meta_mean_motion_ddot": 0,
        "tle_line1": "1 30142U 99025SX  25347.69309620  .00003752  00000+0  20335-2 0  9992",
        "tle_line2": "2 30142  99.1283  63.4830 0101298 305.4804  53.6946 14.10488436963126"
      },
      "geometry": {
        "type": "Point",
        "coordinates": [
          -109.96784206406917,
          30.520393366098254
        ]
      }
    },
    {
      "type": "Feature",
      "properties": {
        "norad_id": 30143,
        "name": "FENGYUN 1C DEB",
        "group": "fengyun-1c-debris",
        "lat": 22.776702324924685,
        "lon": 168.29117836452383,
        "alt_km": 894.0673804857151,
        "timestamp": "2025-12-14T18:52:55.777508+00:00",
        "meta_object_name": "FENGYUN 1C DEB",
        "meta_object_id": "1999-025SY",
        "meta_epoch": "2025-12-13T12:16:15.711744",
        "meta_mean_motion": 14.02588082,
        "meta_eccentricity": 0.01037492,
        "meta_inclination": 98.7349,
        "meta_ra_of_asc_node": 170.7691,
        "meta_arg_of_pericenter": 288.7396,
        "meta_mean_anomaly": 136.5745,
        "meta_ephemeris_type": 0,
        "meta_classification_type": "U",
        "meta_norad_cat_id": 30143,
        "meta_element_set_no": 999,
        "meta_rev_at_epoch": 96230,
        "meta_bstar": 0.0018079185,
        "meta_mean_motion_dot": 2.879e-05,
        "meta_mean_motion_ddot": 0,
        "tle_line1": "1 30143U 99025SY  25347.51129296  .00002879  00000+0  18079-2 0  9994",
        "tle_line2": "2 30143  98.7349 170.7691 0103749 288.7396 136.5745 14.02588082962300"
      },
      "geometry": {
        "type": "Point",
        "coordinates": [
          168.29117836452383,
          22.776702324924685
        ]
      }
    }
  ]
}